LEMUR-2-GREENBERG       
1 42837U 17042N   26068.46200528  .00019778  00000+0  72539-3 0  9997
2 42837  97.3781 249.8007 0009157   4.0119 356.1192 15.27971352473146
STARLINK-35336          
1 66006U 25232B   26068.38055772  .00022971  00000+0  78538-3 0  9995
2 66006  53.1582 104.9612 0001201  92.3455 267.7684 15.30196365 23384
